O3B FM5                 
1 39188U 13031A   26066.09595884 -.00000026  00000+0  00000+0 0  9992
2 39188   0.0982  13.3169 0003324 323.7008  22.9625  5.00116497231935
O3B FM4                 
1 39189U 13031B   26065.61544718 -.00000026  00000+0  00000+0 0  9990
2 39189   0.0552 345.1128 0005085   9.6879   5.1888  5.00115248231917
O3B FM2                 
1 39190U 13031C   26066.08090852 -.00000026  00000+0  00000+0 0  9999
2 39190   0.0561 338.8755 0002814   5.7081  15.4029  5.00116011232004
O3B PFM                 
1 39191U 13031D   26065.09556941 -.00000026  00000+0  00000+0 0  9996
2 39191   0.0668   7.2787 0005147 352.3292   0.3862  5.00115906231517
O3B FM3                 
1 40079U 14038A   26066.16164578 -.00000026  00000+0  00000+0 0  9991
2 40079   0.0530 353.4863 0000643  57.4770 309.0375  5.00115584207943
O3B FM7                 
1 40080U 14038B   26061.31035470 -.00000029  00000+0  00000+0 0  9996
2 40080   0.0588 348.9474 0004488 339.4059  31.6123  5.00115622212532
O3B FM6                 
1 40081U 14038C   26066.13473921 -.00000026  00000+0  00000+0 0  9996
2 40081   0.0549 351.2755 0002661 351.9504  16.7604  5.00115738212721
O3B FM8                 
1 40082U 14038D   26065.38849377 -.00000026  00000+0  00000+0 0  9995
2 40082   0.0558 350.6402 0002654 356.7405  12.6073  5.00116014212801
O3B FM10                
1 40348U 14083A   26066.01522592 -.00000026  00000+0  00000+0 0  9998
2 40348   0.0432 347.7636 0002685 356.5565  15.6666  5.00115262204785
O3B FM11                
1 40349U 14083B   26066.02794664 -.00000026  00000+0  00000+0 0  9991
2 40349   0.0568   0.4081 0003130 333.8888  25.6826  5.00115630204806
O3B FM12                
1 40350U 14083C   26062.45701119 -.00000028  00000+0  00000+0 0  9991
2 40350   0.0560 359.7796 0002643 337.6957  22.5061  5.00115945204637
O3B FM9                 
1 40351U 14083D   26065.88197959 -.00000026  00000+0  00000+0 0  9991
2 40351   0.0579   0.6785 0002732 343.7503  15.5577  5.00115924204958
LEO 1 (LEO VANTAGE 1)   
1 43113U 18004C   26066.45586876  .00006348  00000+0  43934-3 0  9990
2 43113  99.2479 331.4859 0353138  31.7407 330.4562 14.67157945422563
O3B FM15                
1 43231U 18024A   26066.14863402 -.00000026  00000+0  00000+0 0  9993
2 43231   0.0487   0.9511 0002685 341.2868  17.7477  5.00115721145929
O3B FM16                
1 43232U 18024B   26065.60133621 -.00000026  00000+0  00000+0 0  9997
2 43232   0.0450   2.8606 0002813 339.2368  17.8875  5.00115911145813
O3B FM14                
1 43233U 18024C   26066.24176247 -.00000026  00000+0  00000+0 0  9990
2 43233   0.0435   1.7993 0002845 344.8872  13.3011  5.00115698145849
O3B FM13                
1 43234U 18024D   26062.10991137 -.00000028  00000+0  00000+0 0  9997
2 43234   0.0485 331.6373 0004295 331.6147  56.6997  5.00115687145742
